COSMOS 2425 (716)       
1 29670U 06062A   21234.64952932  .00000043  00000-0  00000-0 0  9997
2 29670  64.8277 253.2120 0024103 340.3280 197.4520  2.13114742114082
COSMOS 2433 (720)       
1 32275U 07052A   21234.70523265 -.00000081  00000-0  00000-0 0  9995
2 32275  66.0718  14.5846 0002417 186.9068 204.0454  2.13104309107605
COSMOS 2432 (719)       
1 32276U 07052B   21234.77297821 -.00000081  00000-0  00000+0 0  9998
2 32276  66.0859  14.6795 0007764 337.3451  54.7009  2.13103547107603
COSMOS 2434 (721)       
1 32393U 07065A   21234.57337988  .00000043  00000-0  00000-0 0  9997
2 32393  64.4452 251.6433 0001182 168.0908  10.2923  2.13103118106302
COSMOS 2436 (723)       
1 32395U 07065C   21234.88531581  .00000039  00000-0  00000-0 0  9993
2 32395  64.4544 251.6872 0013988 349.9226 203.8426  2.13103017106242
COSMOS 2456 (730)       
1 36111U 09070A   21234.35813253  .00000000  00000-0  00000-0 0  9990
2 36111  64.2863 131.3224 0004017 318.4189 224.5198  2.13099468 90962
COSMOS 2457 (733)       
1 36112U 09070B   21234.66738520  .00000002  00000-0  00000-0 0  9990
2 36112  64.2684 131.1923 0004787 165.3085  19.7855  2.13101627 90972
COSMOS 2459 (731)       
1 36400U 10007A   21234.43590065 -.00000082  00000-0  00000-0 0  9996
2 36400  65.9680  13.5103 0024968 351.8811  50.9965  2.13108670 89311
COSMOS 2461 (735)       
1 36401U 10007B   21234.43601374 -.00000082  00000-0  00000-0 0  9993
2 36401  65.9626  13.4749 0019078  13.9653  28.2986  2.13103710 89325
COSMOS 2460 (732)       
1 36402U 10007C   21234.50405689 -.00000082  00000-0  00000-0 0  9993
2 36402  65.9493  13.4277 0002593 119.3813 280.5481  2.13106563 89329
COSMOS 2464 (736)       
1 37139U 10041C   21234.63761940  .00000041  00000-0  00000-0 0  9992
2 37139  64.0451 250.8647 0026484   5.6391  82.4520  2.13100814 85380
COSMOS 2471 (701K)      
1 37372U 11009A   21234.84305428 -.00000082  00000-0  00000-0 0  9990
2 37372  65.9442  13.3460 0015274 224.3421 214.1003  2.13062185 81602
COSMOS 2476 (744)       
1 37867U 11064A   21234.48467903  .00000001  00000-0  00000-0 0  9997
2 37867  64.5798 132.5560 0020556 237.5114 305.4132  2.13101956 76318
COSMOS 2477 (745)       
1 37868U 11064B   21234.40439181  .00000000  00000-0  00000-0 0  9996
2 37868  64.5879 132.6202 0018165 238.8336  60.7930  2.13101881 76264
COSMOS 2475 (743)       
1 37869U 11064C   21234.92494193  .00000004  00000-0  00000-0 0  9992
2 37869  64.5958 132.6072 0022102 258.0593  38.6790  2.13102208 76287
COSMOS 2485 (747)       
1 39155U 13019A   21233.47773703 -.00000008  00000-0  00000-0 0  9995
2 39155  64.7460 132.9535 0021145 233.5434 301.3609  2.13102124 64768
COSMOS 2492 (754)       
1 39620U 14012A   21234.64313826 -.00000082  00000-0  00000-0 0  9994
2 39620  65.8372  13.1476 0010886 329.4135  54.2820  2.13103278 57746
COSMOS 2500 (755)       
1 40001U 14032A   21234.37003845 -.00000082  00000-0  00000-0 0  9998
2 40001  65.7772  13.0383 0007137 182.8239 210.8401  2.13102507 55951
COSMOS 2501 (702K)      
1 40315U 14075A   21234.70436789  .00000040  00000-0  00000-0 0  9990
2 40315  63.7558 251.6451 0018924 213.0873 243.6931  2.13101411 52369
COSMOS 2514 (751)       
1 41330U 16008A   21234.56219119 -.00000083  00000-0  00000-0 0  9994
2 41330  65.5792  12.7981 0010226 199.6809 164.6490  2.13102870 43122
COSMOS 2516 (753)       
1 41554U 16032A   21234.85336098  .00000039  00000-0  00000+0 0  9996
2 41554  63.9810 251.8329 0015875 221.8674 262.5296  2.13107155 40735
COSMOS 2522 (752)       
1 42939U 17055A   21234.64079950  .00000042  00000-0  00000-0 0  9993
2 42939  64.2144 252.1450 0010106 244.8047 298.2926  2.13101993 30488
COSMOS 2527 (756)       
1 43508U 18053A   21234.50637208  .00000001  00000-0  00000-0 0  9991
2 43508  64.9095 132.8564 0007795 233.1782 238.9084  2.13102615 24773
COSMOS 2529 (757)       
1 43687U 18086A   21234.57019240  .00000043  00000-0  00000-0 0  9998
2 43687  64.4290 252.3844 0012019 264.0145 180.4856  2.13102177 21793
COSMOS 2534 (758)       
1 44299U 19030A   21234.49360216  .00000044  00000-0  00000-0 0  9992
2 44299  64.4998 252.2447 0014574 281.7900 238.7538  2.13102036 17433
COSMOS 2544 (759)       
1 44850U 19088A   21234.52110323  .00000001  00000-0  00000-0 0  9997
2 44850  64.8936 132.7150 0012081 262.7023 264.3852  2.13102340 13204
COSMOS 2545 (760)       
1 45358U 20018A   21234.72993644 -.00000084  00000-0  00000-0 0  9995
2 45358  64.9137  13.6463 0007691 235.0551 302.1680  2.13102710 11160
